OBJECT_NAME,OBJECT_ID,EPOCH,MEAN_MOTION,ECCENTRICITY,INCLINATION,RA_OF_ASC_NODE,ARG_OF_PERICENTER,MEAN_ANOMALY,EPHEMERIS_TYPE,CLASSIFICATION_TYPE,NORAD_CAT_ID,ELEMENT_SET_NO,REV_AT_EPOCH,BSTAR,MEAN_MOTION_DOT,MEAN_MOTION_DDOT
STARLINK-32643,2024-231R,2026-07-07T12:10:09.980544,15.31722554,.0001703,53.1615,9.5548,116.0366,244.0811,0,U,62233,999,9029,.54768132E-3,.1668E-3,0
STARLINK-32652,2024-231S,2026-07-06T17:13:45.555168,15.31711509,.00009536,53.1592,26.6473,58.1203,301.9891,0,U,62234,999,8998,.11288828E-2,.34842E-3,0
STARLINK-32631,2024-231T,2026-07-07T11:43:16.483008,15.31726714,.00018445,53.1610,9.4426,87.2827,272.8385,0,U,62235,999,9029,.46477628E-3,.14097E-3,0
STARLINK-32641,2024-231U,2026-07-07T12:19:49.783296,15.30240440,.0001478,53.1608,10.3013,70.1098,290.0062,0,U,62236,999,9028,.64659241E-3,.18864E-3,0
QIANFAN-37,2024-232B,2026-07-07T13:19:05.278944,13.51010689,.00017482,89.0065,20.5385,105.2291,254.9053,0,U,62238,999,12709,.43808358E-4,.4E-6,0
QIANFAN-38,2024-232C,2026-07-07T13:54:38.129472,13.51007382,.00132492,89.0071,20.4659,324.5841,35.4429,0,U,62239,999,12715,.19641487E-4,.25E-6,0
QIANFAN-39,2024-232D,2026-07-07T13:50:08.135520,14.25531051,.0018239,89.0058,13.7435,117.3907,242.9144,0,U,62240,999,13085,.43909184E-4,.119E-5,0
QIANFAN-40,2024-232E,2026-07-07T12:55:20.155008,13.51009020,.0012556,89.0099,20.1122,333.9540,26.0978,0,U,62241,999,12751,.6541209E-5,.16E-6,0
QIANFAN-41,2024-232F,2026-07-07T13:07:11.395488,13.51011722,.00125494,89.0069,20.4169,320.7216,39.3024,0,U,62242,999,12717,.20781609E-4,.25E-6,0
QIANFAN-42,2024-232G,2026-07-07T13:34:44.963616,14.24619600,.00169407,89.0056,13.8225,123.1387,237.1434,0,U,62243,999,13081,.42131085E-4,.113E-5,0
QIANFAN-43,2024-232H,2026-07-07T13:01:15.352320,13.51011243,.00142377,89.0074,20.4917,325.6951,34.3279,0,U,62244,999,9578,.3788571E-5,.14E-6,0
QIANFAN-44,2024-232J,2026-07-07T12:43:25.028256,13.51013181,.0012376,89.0072,20.3004,323.4152,36.6153,0,U,62245,999,12725,.28393448E-4,.3E-6,0
QIANFAN-45,2024-232K,2026-07-07T13:42:46.873440,13.51010638,.00130178,89.0076,20.4502,322.4922,37.5320,0,U,62246,999,12718,.21132265E-4,.26E-6,0
QIANFAN-46,2024-232L,2026-07-07T14:18:17.427456,13.51011321,.00132436,89.0072,20.5082,328.4502,31.5854,0,U,62247,999,12714,.27872794E-4,.3E-6,0
QIANFAN-47,2024-232M,2026-07-07T12:37:34.970880,13.51010606,.00136374,89.0068,20.4399,327.5076,32.5235,0,U,62248,999,12716,.41103533E-4,.38E-6,0
QIANFAN-48,2024-232N,2026-07-07T13:30:44.123616,13.51015206,.00159627,89.0072,20.4460,329.1814,30.8398,0,U,62249,999,12717,.34688392E-4,.34E-6,0
QIANFAN-49,2024-232P,2026-07-07T13:13:01.639488,13.51013600,.00128926,89.0071,20.4581,324.7428,35.2869,0,U,62250,999,9576,.21902612E-4,.26E-6,0
QIANFAN-50,2024-232Q,2026-07-07T13:48:41.872032,13.51010426,.00145789,89.0076,20.4751,325.2965,34.7234,0,U,62251,999,9579,.18058373E-4,.24E-6,0
QIANFAN-51,2024-232R,2026-07-07T13:25:01.394688,13.51007164,.00122058,89.0070,20.4579,330.7071,29.3394,0,U,62252,999,9578,.29805078E-4,.31E-6,0
QIANFAN-52,2024-232S,2026-07-07T14:06:21.959424,13.51013162,.00139495,89.0066,20.3206,321.0216,38.9928,0,U,62253,999,9587,.45031079E-4,.41E-6,0
QIANFAN-53,2024-232T,2026-07-07T13:36:47.869344,13.51009460,.00128729,89.0074,20.4428,322.8766,37.1494,0,U,62254,999,9583,.26205509E-4,.29E-6,0
QIANFAN-54,2024-232U,2026-07-07T12:49:21.233856,13.51013316,.00029731,89.0065,20.1062,43.6499,316.4887,0,U,62255,999,12733,.15094409E-4,.22E-6,0
PROBA-3 CSC,2024-233A,2026-07-04T12:11:00.375936,1.22075384,.8000422,59.7314,96.0051,206.0776,67.5703,0,U,62256,999,703,0,-.317E-5,0
PROBA-3 OSC,2024-233C,2026-07-04T12:11:09.521376,1.22075363,.8000227,59.7187,96.0232,206.0626,67.6161,0,U,62258,999,702,0,-.317E-5,0
SXM-9,2024-234A,2026-07-07T13:20:30.743232,1.00270862,.00048782,0.0183,328.9325,349.1196,82.4531,0,U,62259,999,577,0,-.19E-5,0
SENTINEL-1C,2024-235A,2026-07-07T13:36:17.779680,14.59198474,.00013805,98.1824,195.5846,90.0224,270.1133,0,U,62261,999,8438,.36225037E-4,.125E-5,0
STARLINK-32632,2024-231V,2026-07-06T17:00:18.495360,15.31718952,.000103,53.1589,26.5889,101.8336,258.2781,0,U,62262,999,8999,.59464133E-3,.18143E-3,0
STARLINK-11496 [DTC],2024-237A,2026-07-07T14:00:01.999872,15.70885089,.00018142,43.0005,54.2700,254.4969,142.5633,0,U,62267,999,557,-.81233807E-3,-.103596E-2,0
STARLINK-11501 [DTC],2024-237B,2026-07-07T14:36:18.655200,15.70814060,.00019691,43.0008,53.6715,298.7033,61.3637,0,U,62268,999,9186,.10209665E-2,.132522E-2,0
STARLINK-11491 [DTC],2024-237C,2026-07-06T23:13:03.652896,15.70876152,.00020209,43.0005,57.4595,251.3239,108.7409,0,U,62269,999,9181,.49060848E-3,.63081E-3,0
STARLINK-11479 [DTC],2024-237D,2026-07-07T01:07:33.685824,15.70881516,.00028845,42.9996,57.2092,301.9577,58.1010,0,U,62270,999,9182,.1183482E-2,.154549E-2,0
STARLINK-11489 [DTC],2024-237E,2026-07-06T22:57:57.506976,15.70888428,.000218,43.0006,58.2689,286.8246,73.2382,0,U,62271,999,9180,.27916459E-3,.356E-3,0
STARLINK-11494 [DTC],2024-237F,2026-07-07T08:00:03.000384,15.70900889,.00016446,43.0009,55.6997,270.0374,181.6789,0,U,62272,999,600,-.10933624E-2,-.138785E-2,0
STARLINK-11333 [DTC],2024-237G,2026-07-07T00:14:13.684704,15.71002023,.00026786,43.0010,57.7992,286.2299,73.8274,0,U,62273,999,9181,.1135755E-2,.148948E-2,0
STARLINK-11504 [DTC],2024-237H,2026-07-06T23:51:16.537824,15.71014275,.00052946,43.0011,57.6701,246.1457,113.8856,0,U,62274,999,9176,.11362335E-2,.149163E-2,0
STARLINK-11495 [DTC],2024-237J,2026-07-07T02:08:43.406592,15.71024184,.0002848,43.0022,57.5427,272.7437,87.3105,0,U,62275,999,9177,.12150043E-2,.159732E-2,0
STARLINK-11498 [DTC],2024-237K,2026-07-07T00:59:54.270240,15.71033732,.00043192,43.0000,57.1582,265.0804,94.9571,0,U,62276,999,9182,.13114428E-2,.172828E-2,0
STARLINK-11484 [DTC],2024-237L,2026-07-06T22:12:04.968864,15.71041269,.00027563,43.0012,58.0075,240.4291,119.6303,0,U,62277,999,9180,.14701889E-2,.194323E-2,0
STARLINK-11487 [DTC],2024-237M,2026-07-07T00:21:52.736544,15.71040034,.00022263,42.9997,57.8389,303.8354,56.2302,0,U,62278,999,9181,.12652119E-2,.166591E-2,0
STARLINK-11499 [DTC],2024-237N,2026-07-07T00:38:28.508640,15.70869023,.00020879,43.0005,57.9340,291.4570,68.6074,0,U,62279,999,9174,.7225523E-3,.93431E-3,0
STARLINK-33548,2024-237P,2026-07-07T04:35:24.425088,15.27593039,.00016002,42.9997,250.6233,280.8885,79.1787,0,U,62280,999,8959,.76139112E-3,.20757E-3,0
STARLINK-33544,2024-237Q,2026-07-07T05:52:52.279392,15.27606301,.00011598,42.9976,261.4144,255.9286,104.1437,0,U,62281,999,8947,.72063249E-3,.19637E-3,0
STARLINK-33560,2024-237R,2026-07-07T05:26:57.009408,15.27597795,.00021226,42.9989,261.2699,286.0529,74.0088,0,U,62282,999,8938,.56453183E-3,.15314E-3,0
STARLINK-33547,2024-237S,2026-07-05T13:15:54.656352,15.27553572,.0001394,42.9987,259.8231,267.9679,92.1013,0,U,62283,999,8934,-.27278E-3,-.7754E-4,0
STARLINK-33563,2024-237T,2026-07-07T05:36:12.880224,15.27612269,.00013355,42.9996,261.3193,275.3090,84.7609,0,U,62284,999,8947,.93798905E-3,.25665E-3,0
STARLINK-33550,2024-237U,2026-07-07T05:21:23.834592,15.27587942,.00026172,43.0006,261.2453,136.4640,223.6419,0,U,62285,999,8947,.72639925E-3,.19786E-3,0
STARLINK-33564,2024-237V,2026-07-07T05:41:45.369024,15.27618538,.00018469,42.9994,261.3521,274.9371,85.1270,0,U,62286,999,8947,.10213893E-2,.27985E-3,0
STARLINK-33546,2024-237W,2026-07-07T05:30:40.399200,15.27600743,.00014275,42.9994,261.2909,260.5656,99.5035,0,U,62287,999,8938,.96555295E-3,.2642E-3,0
STARLINK-33565,2024-237X,2026-07-07T05:21:26.127648,15.27612055,.00020812,43.0034,249.9994,260.0852,99.9765,0,U,62288,999,8960,.63756007E-3,.17341E-3,0
STARLINK-33549,2024-237Y,2026-07-07T05:47:18.607776,15.27568594,.00021894,42.9954,261.3775,157.1728,202.9221,0,U,62289,999,8947,.30804995E-3,.8221E-4,0
GJZ 01,2024-238A,2026-07-07T15:05:48.886656,13.75223733,.00127042,59.9116,224.7847,266.9320,93.0234,0,U,62290,999,7841,.68674191E-4,-.53E-6,0
GJZ 02,2024-238B,2026-07-07T15:06:55.730016,13.75207662,.00066699,59.9154,188.9096,89.7946,270.3826,0,U,62291,999,7909,.42584293E-4,-.78E-6,0
GJZ 03,2024-238C,2026-07-07T15:05:28.001184,13.75209328,.00202793,59.9112,209.1424,15.9607,344.2036,0,U,62292,999,7870,.13488815E-4,-.106E-5,0
GJZ 04,2024-238D,2026-07-07T15:11:49.826112,13.75202030,.00161559,59.9112,209.1682,26.9942,333.1902,0,U,62293,999,7872,.11846675E-4,-.108E-5,0
GJZ 05,2024-238E,2026-07-07T15:09:00.343008,13.75193135,.00177767,59.9095,209.0969,25.7168,334.4720,0,U,62294,999,7872,-.9529173E-5,-.128E-5,0
STARLINK-32648,2024-239A,2026-07-06T16:43:11.652096,15.34392764,.00007662,53.1600,347.7137,103.8122,256.2966,0,U,62301,999,8779,.72721747E-3,.24268E-3,0
STARLINK-32594,2024-239B,2026-07-07T12:02:10.133088,15.34412515,.00007882,53.1602,353.9984,99.1167,260.9925,0,U,62302,999,8777,.53986509E-3,.17915E-3,0
STARLINK-32621,2024-239C,2026-07-07T10:07:04.125792,15.34412932,.0000766,53.1610,344.4140,78.8353,281.2736,0,U,62303,999,8790,.54162125E-3,.17975E-3,0
STARLINK-32597,2024-239D,2026-07-07T10:22:11.916768,15.34405299,.00011441,53.1612,344.4816,114.0660,246.0463,0,U,62304,999,8790,.60780532E-3,.20218E-3,0
STARLINK-32649,2024-239E,2026-07-07T11:32:42.138528,15.34410121,.00007847,53.1598,356.1528,107.7232,252.3857,0,U,62305,999,8774,.44737418E-3,.14774E-3,0
STARLINK-32633,2024-239F,2026-07-07T10:56:28.368960,15.34411411,.00009985,53.1614,356.7022,107.5903,252.5208,0,U,62306,999,8773,.53334795E-3,.17693E-3,0
STARLINK-32646,2024-239G,2026-07-07T10:53:11.980032,15.30209204,.00005364,53.1596,344.6120,130.6246,229.4801,0,U,62307,999,8790,.52988144E-3,.15372E-3,0
STARLINK-32706,2024-239H,2026-07-07T11:11:34.743840,15.34445275,.00007495,53.1602,356.7681,25.8647,334.2393,0,U,62308,999,8773,.52650196E-3,.1748E-3,0
STARLINK-32678,2024-239J,2026-07-07T10:36:08.090784,15.36796072,.00034314,53.1581,343.8257,285.7462,74.3163,0,U,62309,999,8791,.16818725E-2,.61479E-3,0
STARLINK-32696,2024-239K,2026-07-07T11:20:34.537344,15.34408432,.00003387,53.1604,356.0999,99.5520,260.5521,0,U,62310,999,8774,.5854967E-3,.19463E-3,0
